STARLINK-32305          
1 61523U 24183Q   24306.58334491 -.00035047  00000+0 -24044-3 0  9994
2 61523  53.1524 286.4197 0001563  55.5956   2.2796 15.73757503  3884
STARLINK-32296          
1 61524U 24183R   24306.58334491  .00014112  00000+0  10248-3 0  9994
2 61524  53.1524 286.4235 0001553  63.6279 352.3414 15.73727560  3779
STARLINK-32298          
1 61525U 24183S   24306.58334491 -.00087134  00000+0 -60724-3 0  9995
2 61525  53.1534 286.4160 0001552  43.2770  16.5045 15.73786966  3939
STARLINK-32293          
1 61526U 24183T   24306.58334491 -.00032129  00000+0 -21992-3 0  9994
2 61526  53.1523 286.4117 0001780  56.3210   5.3819 15.73762748  3989
STARLINK-32313          
1 61527U 24183U   24306.58334491  .00047076  00000+0  33061-3 0  9990
2 61527  53.1542 286.4034 0001793  54.8005  10.7530 15.73712570  3931
STARLINK-32319          
1 61528U 24183V   24306.58334491  .00001646  00000+0  15811-4 0  9998
2 61528  53.1527 286.4078 0001326  48.4923  15.1462 15.73735893  3984
STARLINK-32351          
1 61529U 24183W   24306.58334491  .00042892  00000+0  30116-3 0  9991
2 61529  53.1514 286.3992 0001046 106.8393 320.6994 15.73759615  3920
STARLINK-32261          
1 61530U 24183X   24306.58334491 -.00057380  00000+0 -39710-3 0  9992
2 61530  53.1544 286.3957 0001551  52.3160  17.0379 15.73780337  3990
STARLINK-32358          
1 61531U 24183Y   24306.58334491  .00006939  00000+0  52640-4 0  9993
2 61531  53.1517 286.3913 0000506 116.8680 314.4418 15.73724309  3888
STARLINK-11354 [DTC]    
1 61532U 24184A   24306.58334491 -.00754935  00000+0 -47631-2 0  9995
2 61532  53.1593 152.2728 0000656  77.5145 117.6806 15.77958330  3839
STARLINK-11323 [DTC]    
1 61533U 24184B   24306.58334491 -.00757684  00000+0 -41010-2 0  9995
2 61533  53.1588 152.2023 0000657  72.5890 156.8236 15.81304692  3940
STARLINK-11338 [DTC]    
1 61534U 24184C   24306.58334491 -.00756856  00000+0 -44258-2 0  9993
2 61534  53.1589 152.2312 0000684  72.9998 142.3582 15.79632231  3838
STARLINK-11362 [DTC]    
1 61535U 24184D   24306.54129802  .00009633  00000+0  45781-4 0  9994
2 61535  53.1596 152.3931 0000970  76.0363 284.0769 15.83783633  2898
STARLINK-11295 [DTC]    
1 61536U 24184E   24306.54174755 -.00122329  00000+0 -55479-3 0  9996
2 61536  53.1603 152.3964 0001821 145.4535 214.6608 15.83413412  2898
STARLINK-11331 [DTC]    
1 61537U 24184F   24306.54097135 -.00018519  00000+0 -78974-4 0  9994
2 61537  53.1601 152.3905 0000645 108.8083 251.3011 15.83741189  2897
STARLINK-11325 [DTC]    
1 61538U 24184G   24306.54061358  .00067339  00000+0  29763-3 0  9996
2 61538  53.1593 152.3890 0001122 133.4654 226.6464 15.83856976  2898
STARLINK-11332 [DTC]    
1 61539U 24184H   24306.54028357  .00004920  00000+0  24946-4 0  9995
2 61539  53.1596 152.3862 0000075  70.1359 289.9673 15.83807570  2896
STARLINK-11350 [DTC]    
1 61540U 24184J   24306.60307224 -.00408724  00000+0 -19162-2 0  9991
2 61540  53.1594 152.0669 0005627 238.3877 121.6598 15.83448449  2905
STARLINK-11357 [DTC]    
1 61541U 24184K   24306.53961650  .00027263  00000+0  12335-3 0  9992
2 61541  53.1597 152.3813 0001338 129.1492 230.9651 15.83792091  2895
STARLINK-11322 [DTC]    
1 61542U 24184L   24306.53927898 -.00002645  00000+0 -84503-5 0  9996
2 61542  53.1597 152.3786 0001320 125.5246 234.5901 15.83792730  3959
STARLINK-11364 [DTC]    
1 61543U 24184M   24306.60204253  .00050472  00000+0  22484-3 0  9995
2 61543  53.1590 152.0594 0000561  97.2730 262.8358 15.83807522  2906
STARLINK-11349 [DTC]    
1 61544U 24184N   24306.53860256 -.00000281  00000+0  19978-5 0  9999
2 61544  53.1595 152.3743 0001136 136.8730 223.2383 15.83785853  2899
STARLINK-32406          
1 61545U 24184P   24306.58334491 -.01418822  00000+0 -14790-1 0  9991
2 61545  53.1596 152.6708 0000565  87.0654 270.6802 15.66575430  3928
STARLINK-32445          
1 61546U 24184Q   24306.58334491 -.01419319  00000+0 -14795-1 0  9999
2 61546  53.1596 152.6789 0000694  78.8726 275.0400 15.66575633  3983
STARLINK-32411          
1 61547U 24184R   24306.58334491 -.01419387  00000+0 -14796-1 0  9996
2 61547  53.1596 152.6749 0000660  83.3282 272.5010 15.66575571  3936
STARLINK-32424          
1 61548U 24184S   24306.58334491 -.01419201  00000+0 -14794-1 0  9990
2 61548  53.1596 152.6671 0000623  81.3700 278.2920 15.66575615  3935
STARLINK-32389          
1 61549U 24184T   24306.58334491 -.01419671  00000+0 -14799-1 0  9997
2 61549  53.1596 152.6590 0000699  79.2759 284.2192 15.66575726  3930
STARLINK-32476          
1 61550U 24184U   24306.58334491 -.01419383  00000+0 -14796-1 0  9996
2 61550  53.1596 152.6552 0000639  81.0085 284.4030 15.66575649  3978
STARLINK-32366          
1 61551U 24184V   24306.58334491 -.01419686  00000+0 -14799-1 0  9996
2 61551  53.1596 152.6631 0000742  82.2972 279.2816 15.66575649  3930
GAOFEN-12 05            
1 61571U 24186A   24306.58135494  .00002352  00000+0  31571-3 0  9996
2 61571  97.9142 311.6886 0001199 112.4381 247.6958 14.80272138  1645
CZ-4C R/B               
1 61572U 24186B   24306.47860605  .00010636  00000+0  77081-3 0  9994
2 61572  97.8985 312.1005 0050072 353.3578   6.6976 15.03125194  2477
STARLINK-11356 [DTC]    
1 61574U 24187A   24306.58334491  .00035775  00000+0  22170-3 0  9998
2 61574  53.1574 209.1908 0000555  82.2229 283.0993 15.76724086  3248
STARLINK-11376 [DTC]    
1 61575U 24187B   24306.58334491 -.00203590  00000+0 -12634-2 0  9996
2 61575  53.1567 209.1338 0000479 119.3804 273.6312 15.76845344  3223
STARLINK-11372 [DTC]    
1 61576U 24187C   24306.58334491 -.00838518  00000+0 -52949-2 0  9994
2 61576  53.1561 209.0807 0000489 123.6059 295.1943 15.78161294  3292
STARLINK-11375 [DTC]    
1 61577U 24187D   24306.58334491 -.00839651  00000+0 -50431-2 0  9998
2 61577  53.1556 209.0323 0000519 125.2031 317.1036 15.79263846  3297
STARLINK-11285 [DTC]    
1 61578U 24187E   24306.58334491 -.00840632  00000+0 -48101-2 0  9991
2 61578  53.1556 208.9882 0000544 125.9281 337.8914 15.80319512  3241
STARLINK-11275 [DTC]    
1 61579U 24187F   24306.58334491 -.00840895  00000+0 -45756-2 0  9996
2 61579  53.1553 208.9485 0000501 123.0709 359.8932 15.81401769  3246
STARLINK-11342 [DTC]    
1 61580U 24187G   24306.58334491 -.00841993  00000+0 -43618-2 0  9993
2 61580  53.1553 208.9129 0000614 127.5867  12.6761 15.82449112  3342
STARLINK-11374 [DTC]    
1 61581U 24187H   24306.58334491 -.00797849  00000+0 -38873-2 0  9991
2 61581  53.1552 208.8808 0001380 114.6014  41.1269 15.83623730  3348
STARLINK-11373 [DTC]    
1 61582U 24187J   24306.58334491 -.00044718  00000+0 -19549-3 0  9992
2 61582  53.1553 208.8523 0001109 115.0863  54.4872 15.83781436  3299
STARLINK-11368 [DTC]    
1 61583U 24187K   24306.58334491  .00120292  00000+0  52880-3 0  9998
2 61583  53.1554 208.8234 0001321  95.3150  88.3584 15.83742351  3249
STARLINK-11370 [DTC]    
1 61584U 24187L   24306.58334491 -.00436677  00000+0 -19922-2 0  9997
2 61584  53.1554 208.7936 0000478 138.9241  59.1762 15.84130965  3286
STARLINK-11361 [DTC]    
1 61585U 24187M   24306.58334491 -.00421966  00000+0 -18771-2 0  9994
2 61585  53.1555 208.7665 0000533 129.3500  81.8759 15.84620395  3291
STARLINK-11360 [DTC]    
1 61586U 24187N   24306.58334491 -.00410483  00000+0 -17847-2 0  9990
2 61586  53.1557 208.7402 0000535 129.5037  94.6017 15.85066758  3345
STARLINK-32353          
1 61587U 24187P   24306.58334491  .00030525  00000+0  21622-3 0  9991
2 61587  53.1561 209.1518 0001284  80.1320 303.4279 15.73724190  3353
STARLINK-32325          
1 61588U 24187Q   24306.58334491  .00111033  00000+0  76917-3 0  9993
2 61588  53.1563 209.1563 0000751  79.8604 301.8006 15.73678140  3403
STARLINK-32416          
1 61589U 24187R   24306.58334491 -.00007365  00000+0 -46942-4 0  9994
2 61589  53.1565 209.1480 0001811  88.9151 296.5574 15.73743315  3407
STARLINK-32413          
1 61590U 24187S   24306.58334491  .00066272  00000+0  46282-3 0  9992
2 61590  53.1564 209.1436 0001992  91.0137 296.3912 15.73701012  3400
STARLINK-32409          
1 61591U 24187T   24306.58334491 -.00010965  00000+0 -72046-4 0  9991
2 61591  53.1565 209.1397 0001687  68.4235 320.8777 15.73747900  3404
STARLINK-32422          
1 61592U 24187U   24306.58334491  .00020027  00000+0  14352-3 0  9995
2 61592  53.1567 209.1358 0001039  96.0249 295.2069 15.73725357  3408
STARLINK-32397          
1 61593U 24187V   24306.58334491  .00012656  00000+0  92358-4 0  9998
2 61593  53.1567 209.1315 0001719  75.4172 317.7274 15.73731038  3404
ONEWEB-0015             
1 61594U 24188A   24306.40387456 -.00303761  00000+0 -32349-1 0  9993
2 61594  86.5094 165.2850 0005561 148.7454 211.4105 14.90738272  4771
ONEWEB-0687             
1 61595U 24188B   24306.40424005 -.00155530  00000+0 -16136-1 0  9991
2 61595  86.5092 165.2847 0005241 158.0047 202.1406 14.90944218  4773
ONEWEB-0688             
1 61596U 24188C   24306.58334491 -.00794489  00000+0 -89855-1 0  9990
2 61596  86.5250 165.2131 0004355 151.2840  82.7994 14.89386910  2855
ONEWEB-0689             
1 61597U 24188D   24306.58334491 -.00791245  00000+0 -90944-1 0  9999
2 61597  86.5254 165.2139 0002750 142.1064  75.5676 14.88736568  2924
ONEWEB-0690             
1 61598U 24188E   24306.53600014 -.00229685  00000+0 -23853-1 0  9991
2 61598  86.5095 165.2266 0004733 151.7638 208.3847 14.91327961  4795
ONEWEB-0691             
1 61599U 24188F   24306.53726549 -.00238474  00000+0 -24972-1 0  9993
2 61599  86.5110 165.2315 0008206 151.4954 208.6723 14.91022590  3061
ONEWEB-0692             
1 61600U 24188G   24306.58334491 -.00783552  00000+0 -91849-1 0  9991
2 61600  86.5339 165.2230 0001693 146.7469  56.8222 14.87920535  3017
